{
"type": "FeatureCollection",
"name": "schools",
"crs": { "type": "name", "properties": { "name": "urn:ogc:def:crs:OGC:1.3:CRS84" } },
"features": [
{ "type": "Feature", "properties": { "district": "Bethel School District", "level": "elementary", "school": "Clear Lake Elementary School", "approximate_enrollment": 100, "log_enrollment": 0.0 }, "geometry": { "type": "Point", "coordinates": [ -123.174668, 44.083286 ] } },
{ "type": "Feature", "properties": { "district": "Bethel School District", "level": "elementary", "school": "Danebo Elementary School", "approximate_enrollment": 100, "log_enrollment": 0.0 }, "geometry": { "type": "Point", "coordinates": [ -123.179423, 44.076566 ] } },
{ "type": "Feature", "properties": { "district": "Bethel School District", "level": "elementary", "school": "Fairfield Elementary School", "approximate_enrollment": 100, "log_enrollment": 0.0 }, "geometry": { "type": "Point", "coordinates": [ -123.150573, 44.070876 ] } },
{ "type": "Feature", "properties": { "district": "Bethel School District", "level": "elementary", "school": "Irving Elementary School", "approximate_enrollment": 100, "log_enrollment": 0.0 }, "geometry": { "type": "Point", "coordinates": [ -123.152582, 44.11053 ] } },
{ "type": "Feature", "properties": { "district": "Bethel School District", "level": "elementary", "school": "Malabon Elementary School", "approximate_enrollment": 100, "log_enrollment": 0.0 }, "geometry": { "type": "Point", "coordinates": [ -123.161836, 44.07697 ] } },
{ "type": "Feature", "properties": { "district": "Bethel School District", "level": "high", "school": "Willamette High School", "approximate_enrollment": 1000, "log_enrollment": 2.3025850929940459 }, "geometry": { "type": "Point", "coordinates": [ -123.166335, 44.081983 ] } },
{ "type": "Feature", "properties": { "district": "Bethel School District", "level": "high", "school": "Kalapuya High School", "approximate_enrollment": 100, "log_enrollment": 0.0 }, "geometry": { "type": "Point", "coordinates": [ -123.189226, 44.073939 ] } },
{ "type": "Feature", "properties": { "district": "Bethel School District", "level": "k-8", "school": "Meadow View School", "approximate_enrollment": 100, "log_enrollment": 0.0 }, "geometry": { "type": "Point", "coordinates": [ -123.200786, 44.082496 ] } },
{ "type": "Feature", "properties": { "district": "Bethel School District", "level": "k-8", "school": "Prairie Mountain School", "approximate_enrollment": 100, "log_enrollment": 0.0 }, "geometry": { "type": "Point", "coordinates": [ -123.190451, 44.073034 ] } },
{ "type": "Feature", "properties": { "district": "Bethel School District", "level": "middle", "school": "Cascade Middle School", "approximate_enrollment": 500, "log_enrollment": 1.6094379124341003 }, "geometry": { "type": "Point", "coordinates": [ -123.166788, 44.078679 ] } },
{ "type": "Feature", "properties": { "district": "Bethel School District", "level": "middle", "school": "Shasta Middle School", "approximate_enrollment": 500, "log_enrollment": 1.6094379124341003 }, "geometry": { "type": "Point", "coordinates": [ -123.17696, 44.083286 ] } },
{ "type": "Feature", "properties": { "district": "Eugene School District 4J", "level": "elementary", "school": "Adams Elementary School", "approximate_enrollment": 100, "log_enrollment": 0.0 }, "geometry": { "type": "Point", "coordinates": [ -123.10832, 44.034866 ] } },
{ "type": "Feature", "properties": { "district": "Eugene School District 4J", "level": "elementary", "school": "Awbrey Park Elementary School", "approximate_enrollment": 100, "log_enrollment": 0.0 }, "geometry": { "type": "Point", "coordinates": [ -123.137884, 44.122894 ] } },
{ "type": "Feature", "properties": { "district": "Eugene School District 4J", "level": "elementary", "school": "Buena Vista Spanish Immersion Elementary School", "approximate_enrollment": 100, "log_enrollment": 0.0 }, "geometry": { "type": "Point", "coordinates": [ -123.076097, 44.078791 ] } },
{ "type": "Feature", "properties": { "district": "Eugene School District 4J", "level": "elementary", "school": "Camas Ridge Community School", "approximate_enrollment": 100, "log_enrollment": 0.0 }, "geometry": { "type": "Point", "coordinates": [ -123.095779, 44.027324 ] } },
{ "type": "Feature", "properties": { "district": "Eugene School District 4J", "level": "elementary", "school": "Charlemagne French Immersion Elementary School", "approximate_enrollment": 100, "log_enrollment": 0.0 }, "geometry": { "type": "Point", "coordinates": [ -123.074958, 44.01311 ] } },
{ "type": "Feature", "properties": { "district": "Eugene School District 4J", "level": "elementary", "school": "Cesar Chavez Elementary School", "approximate_enrollment": 100, "log_enrollment": 0.0 }, "geometry": { "type": "Point", "coordinates": [ -123.116256, 44.043416 ] } },
{ "type": "Feature", "properties": { "district": "Eugene School District 4J", "level": "elementary", "school": "Chinese Immersion School", "approximate_enrollment": 100, "log_enrollment": 0.0 }, "geometry": { "type": "Point", "coordinates": [ -123.152738, 44.036247 ] } },
{ "type": "Feature", "properties": { "district": "Eugene School District 4J", "level": "elementary", "school": "Edgewood Community Elementary School", "approximate_enrollment": 100, "log_enrollment": 0.0 }, "geometry": { "type": "Point", "coordinates": [ -123.085157, 44.005315 ] } },
{ "type": "Feature", "properties": { "district": "Eugene School District 4J", "level": "elementary", "school": "Edison Elementary School", "approximate_enrollment": 100, "log_enrollment": 0.0 }, "geometry": { "type": "Point", "coordinates": [ -123.072339, 44.035084 ] } },
{ "type": "Feature", "properties": { "district": "Eugene School District 4J", "level": "elementary", "school": "Family School", "approximate_enrollment": 100, "log_enrollment": 0.0 }, "geometry": { "type": "Point", "coordinates": [ -123.110888, 44.016091 ] } },
{ "type": "Feature", "properties": { "district": "Eugene School District 4J", "level": "elementary", "school": "Gilham Elementary School", "approximate_enrollment": 100, "log_enrollment": 0.0 }, "geometry": { "type": "Point", "coordinates": [ -123.07807, 44.099857 ] } },
{ "type": "Feature", "properties": { "district": "Eugene School District 4J", "level": "elementary", "school": "Holt Elementary School", "approximate_enrollment": 100, "log_enrollment": 0.0 }, "geometry": { "type": "Point", "coordinates": [ -123.055053, 44.071217 ] } },
{ "type": "Feature", "properties": { "district": "Eugene School District 4J", "level": "elementary", "school": "Howard Elementary School", "approximate_enrollment": 100, "log_enrollment": 0.0 }, "geometry": { "type": "Point", "coordinates": [ -123.138688, 44.087489 ] } },
{ "type": "Feature", "properties": { "district": "Eugene School District 4J", "level": "elementary", "school": "McCornack Elementary School", "approximate_enrollment": 100, "log_enrollment": 0.0 }, "geometry": { "type": "Point", "coordinates": [ -123.14453, 44.038388 ] } },
{ "type": "Feature", "properties": { "district": "Eugene School District 4J", "level": "elementary", "school": "Spring Creek Elementary School", "approximate_enrollment": 100, "log_enrollment": 0.0 }, "geometry": { "type": "Point", "coordinates": [ -123.144645, 44.114405 ] } },
{ "type": "Feature", "properties": { "district": "Eugene School District 4J", "level": "elementary", "school": "Twin Oaks Elementary School", "approximate_enrollment": 100, "log_enrollment": 0.0 }, "geometry": { "type": "Point", "coordinates": [ -123.175549, 43.994385 ] } },
{ "type": "Feature", "properties": { "district": "Eugene School District 4J", "level": "elementary", "school": "Willagillespie Elementary School", "approximate_enrollment": 100, "log_enrollment": 0.0 }, "geometry": { "type": "Point", "coordinates": [ -123.098507, 44.070617 ] } },
{ "type": "Feature", "properties": { "district": "Eugene School District 4J", "level": "elementary", "school": "Yujin Gakuen Public Japanese Immersion School", "approximate_enrollment": 100, "log_enrollment": 0.0 }, "geometry": { "type": "Point", "coordinates": [ -123.141006, 44.087393 ] } },
{ "type": "Feature", "properties": { "district": "Eugene School District 4J", "level": "elementary", "school": "El Camino del Río Elementary School", "approximate_enrollment": 100, "log_enrollment": 0.0 }, "geometry": { "type": "Point", "coordinates": [ -123.122283, 44.078858 ] } },
{ "type": "Feature", "properties": { "district": "Eugene School District 4J", "level": "high", "school": "Churchill High School", "approximate_enrollment": 1000, "log_enrollment": 2.3025850929940459 }, "geometry": { "type": "Point", "coordinates": [ -123.15099, 44.039425 ] } },
{ "type": "Feature", "properties": { "district": "Eugene School District 4J", "level": "high", "school": "South Eugene High School", "approximate_enrollment": 1000, "log_enrollment": 2.3025850929940459 }, "geometry": { "type": "Point", "coordinates": [ -123.086305, 44.037985 ] } },
{ "type": "Feature", "properties": { "district": "Eugene School District 4J", "level": "high", "school": "North Eugene High School", "approximate_enrollment": 1000, "log_enrollment": 2.3025850929940459 }, "geometry": { "type": "Point", "coordinates": [ -123.133066, 44.094408 ] } },
{ "type": "Feature", "properties": { "district": "Eugene School District 4J", "level": "high", "school": "Sheldon High School", "approximate_enrollment": 1000, "log_enrollment": 2.3025850929940459 }, "geometry": { "type": "Point", "coordinates": [ -123.0719, 44.08206 ] } },
{ "type": "Feature", "properties": { "district": "Eugene School District 4J", "level": "k-8", "school": "Fox Hollow Campus", "approximate_enrollment": 100, "log_enrollment": 0.0 }, "geometry": { "type": "Point", "coordinates": [ -123.082378, 43.999249 ] } },
{ "type": "Feature", "properties": { "district": "Eugene School District 4J", "level": "middle", "school": "Eugene Arts & Technology Academy", "approximate_enrollment": 500, "log_enrollment": 1.6094379124341003 }, "geometry": { "type": "Point", "coordinates": [ -123.114442, 44.034278 ] } },
{ "type": "Feature", "properties": { "district": "Eugene School District 4J", "level": "middle", "school": "Cal Young Middle School", "approximate_enrollment": 500, "log_enrollment": 1.6094379124341003 }, "geometry": { "type": "Point", "coordinates": [ -123.079635, 44.091231 ] } },
{ "type": "Feature", "properties": { "district": "Eugene School District 4J", "level": "middle", "school": "Kelly Middle School", "approximate_enrollment": 500, "log_enrollment": 1.6094379124341003 }, "geometry": { "type": "Point", "coordinates": [ -123.141764, 44.08749 ] } },
{ "type": "Feature", "properties": { "district": "Eugene School District 4J", "level": "middle", "school": "Kennedy Middle School", "approximate_enrollment": 500, "log_enrollment": 1.6094379124341003 }, "geometry": { "type": "Point", "coordinates": [ -123.154661, 44.035918 ] } },
{ "type": "Feature", "properties": { "district": "Eugene School District 4J", "level": "middle", "school": "Madison Middle School", "approximate_enrollment": 500, "log_enrollment": 1.6094379124341003 }, "geometry": { "type": "Point", "coordinates": [ -123.121438, 44.116326 ] } },
{ "type": "Feature", "properties": { "district": "Eugene School District 4J", "level": "middle", "school": "Roosevelt Middle School", "approximate_enrollment": 500, "log_enrollment": 1.6094379124341003 }, "geometry": { "type": "Point", "coordinates": [ -123.085327, 44.03272 ] } },
{ "type": "Feature", "properties": { "district": "Eugene School District 4J", "level": "middle", "school": "Spencer Butte Middle School", "approximate_enrollment": 500, "log_enrollment": 1.6094379124341003 }, "geometry": { "type": "Point", "coordinates": [ -123.085953, 44.006867 ] } },
{ "type": "Feature", "properties": { "district": "Springfield Public Schools", "level": "elementary", "school": "Douglas Gardens Elementary", "approximate_enrollment": 100, "log_enrollment": 0.0 }, "geometry": { "type": "Point", "coordinates": [ -122.975057, 44.03626 ] } },
{ "type": "Feature", "properties": { "district": "Springfield Public Schools", "level": "elementary", "school": "Elizabeth Page Elementary School", "approximate_enrollment": 100, "log_enrollment": 0.0 }, "geometry": { "type": "Point", "coordinates": [ -123.006103, 44.068961 ] } },
{ "type": "Feature", "properties": { "district": "Springfield Public Schools", "level": "elementary", "school": "Guy Lee Elementary School", "approximate_enrollment": 100, "log_enrollment": 0.0 }, "geometry": { "type": "Point", "coordinates": [ -123.038855, 44.069762 ] } },
{ "type": "Feature", "properties": { "district": "Springfield Public Schools", "level": "elementary", "school": "Maple Elementary School", "approximate_enrollment": 100, "log_enrollment": 0.0 }, "geometry": { "type": "Point", "coordinates": [ -122.992242, 44.054425 ] } },
{ "type": "Feature", "properties": { "district": "Springfield Public Schools", "level": "elementary", "school": "Mt Vernon Elementary School", "approximate_enrollment": 100, "log_enrollment": 0.0 }, "geometry": { "type": "Point", "coordinates": [ -122.96519, 44.036515 ] } },
{ "type": "Feature", "properties": { "district": "Springfield Public Schools", "level": "elementary", "school": "Ridgeview Elementary School", "approximate_enrollment": 100, "log_enrollment": 0.0 }, "geometry": { "type": "Point", "coordinates": [ -122.911948, 44.049321 ] } },
{ "type": "Feature", "properties": { "district": "Springfield Public Schools", "level": "elementary", "school": "Riverbend Elementary School", "approximate_enrollment": 100, "log_enrollment": 0.0 }, "geometry": { "type": "Point", "coordinates": [ -122.944268, 44.048061 ] } },
{ "type": "Feature", "properties": { "district": "Springfield Public Schools", "level": "elementary", "school": "Thurston Elementary School", "approximate_enrollment": 100, "log_enrollment": 0.0 }, "geometry": { "type": "Point", "coordinates": [ -122.89466, 44.050824 ] } },
{ "type": "Feature", "properties": { "district": "Springfield Public Schools", "level": "elementary", "school": "Two Rivers-Dos Rios Elementary School", "approximate_enrollment": 100, "log_enrollment": 0.0 }, "geometry": { "type": "Point", "coordinates": [ -123.010763, 44.052557 ] } },
{ "type": "Feature", "properties": { "district": "Springfield Public Schools", "level": "elementary", "school": "Walterville Elementary School", "approximate_enrollment": 100, "log_enrollment": 0.0 }, "geometry": { "type": "Point", "coordinates": [ -122.761849, 44.078959 ] } },
{ "type": "Feature", "properties": { "district": "Springfield Public Schools", "level": "elementary", "school": "Yolanda Elementary School", "approximate_enrollment": 100, "log_enrollment": 0.0 }, "geometry": { "type": "Point", "coordinates": [ -122.990941, 44.073161 ] } },
{ "type": "Feature", "properties": { "district": "Springfield Public Schools", "level": "high", "school": "Academy of Arts and Academics", "approximate_enrollment": 100, "log_enrollment": 0.0 }, "geometry": { "type": "Point", "coordinates": [ -123.018042, 44.046075 ] } },
{ "type": "Feature", "properties": { "district": "Springfield Public Schools", "level": "high", "school": "Gateways High School - Brattain Campus", "approximate_enrollment": 100, "log_enrollment": 0.0 }, "geometry": { "type": "Point", "coordinates": [ -123.012346, 44.049226 ] } },
{ "type": "Feature", "properties": { "district": "Springfield Public Schools", "level": "high", "school": "Springfield High School", "approximate_enrollment": 1000, "log_enrollment": 2.3025850929940459 }, "geometry": { "type": "Point", "coordinates": [ -123.015808, 44.053526 ] } },
{ "type": "Feature", "properties": { "district": "Springfield Public Schools", "level": "high", "school": "Thurston High School", "approximate_enrollment": 1000, "log_enrollment": 2.3025850929940459 }, "geometry": { "type": "Point", "coordinates": [ -122.925063, 44.048881 ] } },
{ "type": "Feature", "properties": { "district": "Springfield Public Schools", "level": "middle", "school": "Agnes Stewart Middle School", "approximate_enrollment": 400, "log_enrollment": 1.3862943611198906 }, "geometry": { "type": "Point", "coordinates": [ -122.982244, 44.037813 ] } },
{ "type": "Feature", "properties": { "district": "Springfield Public Schools", "level": "middle", "school": "Briggs Middle School", "approximate_enrollment": 400, "log_enrollment": 1.3862943611198906 }, "geometry": { "type": "Point", "coordinates": [ -122.990596, 44.071642 ] } },
{ "type": "Feature", "properties": { "district": "Springfield Public Schools", "level": "middle", "school": "Hamlin Middle School", "approximate_enrollment": 400, "log_enrollment": 1.3862943611198906 }, "geometry": { "type": "Point", "coordinates": [ -123.02153, 44.058296 ] } },
{ "type": "Feature", "properties": { "district": "Springfield Public Schools", "level": "middle", "school": "Thurston Middle School", "approximate_enrollment": 400, "log_enrollment": 1.3862943611198906 }, "geometry": { "type": "Point", "coordinates": [ -122.916225, 44.054207 ] } },
{ "type": "Feature", "properties": { "district": "Springfield Public Schools", "level": "middle", "school": "Centennial Elementary School", "approximate_enrollment": 400, "log_enrollment": 1.3862943611198906 }, "geometry": { "type": "Point", "coordinates": [ -123.041479, 44.05773 ] } },
{ "type": "Feature", "properties": { "district": "miscellaneous", "level": "adult", "school": "University of Oregon", "approximate_enrollment": 20000, "log_enrollment": 5.2983173665480363 }, "geometry": { "type": "Point", "coordinates": [ -123.072606, 44.04483, 0.0 ] } },
{ "type": "Feature", "properties": { "district": "miscellaneous", "level": "adult", "school": "Mansfield Hall - Eugene", "approximate_enrollment": 100, "log_enrollment": 0.0 }, "geometry": { "type": "Point", "coordinates": [ -123.081721, 44.039081, 0.0 ] } },
{ "type": "Feature", "properties": { "district": "miscellaneous", "level": "adult", "school": "Bushnell University", "approximate_enrollment": 700, "log_enrollment": 1.9459101490553132 }, "geometry": { "type": "Point", "coordinates": [ -123.079872, 44.048046, 0.0 ] } },
{ "type": "Feature", "properties": { "district": "miscellaneous", "level": "adult", "school": "Oregon Business College", "approximate_enrollment": 100, "log_enrollment": 0.0 }, "geometry": { "type": "Point", "coordinates": [ -123.075265, 44.067125, 0.0 ] } },
{ "type": "Feature", "properties": { "district": "miscellaneous", "level": "adult", "school": "IBS School of Cosmetology and Massage", "approximate_enrollment": 100, "log_enrollment": 0.0 }, "geometry": { "type": "Point", "coordinates": [ -123.098608, 44.051854, 0.0 ] } },
{ "type": "Feature", "properties": { "district": "miscellaneous", "level": "adult", "school": "Pacific University College of Education", "approximate_enrollment": 100, "log_enrollment": 0.0 }, "geometry": { "type": "Point", "coordinates": [ -123.092073, 44.049819, 0.0 ] } },
{ "type": "Feature", "properties": { "district": "miscellaneous", "level": "adult", "school": "Lane Community College Downtown Campus", "approximate_enrollment": 100, "log_enrollment": 0.0 }, "geometry": { "type": "Point", "coordinates": [ -123.094765, 44.048941, 0.0 ] } },
{ "type": "Feature", "properties": { "district": "miscellaneous", "level": "adult", "school": "Gutenberg College", "approximate_enrollment": 100, "log_enrollment": 0.0 }, "geometry": { "type": "Point", "coordinates": [ -123.074305, 44.039143, 0.0 ] } },
{ "type": "Feature", "properties": { "district": "miscellaneous", "level": "adult", "school": "Lane Community College", "approximate_enrollment": 3000, "log_enrollment": 3.4011973816621555 }, "geometry": { "type": "Point", "coordinates": [ -123.034753, 44.008982, 0.0 ] } },
{ "type": "Feature", "properties": { "district": "miscellaneous", "level": "adult", "school": "Northwest College School of Beauty", "approximate_enrollment": 100, "log_enrollment": 0.0 }, "geometry": { "type": "Point", "coordinates": [ -123.04631, 44.078044, 0.0 ] } },
{ "type": "Feature", "properties": { "district": "miscellaneous", "level": "adult", "school": "Oregon Dental Education Services", "approximate_enrollment": 100, "log_enrollment": 0.0 }, "geometry": { "type": "Point", "coordinates": [ -123.017935, 44.059912, 0.0 ] } },
{ "type": "Feature", "properties": { "district": "miscellaneous", "level": "adult", "school": "Welding School", "approximate_enrollment": 100, "log_enrollment": 0.0 }, "geometry": { "type": "Point", "coordinates": [ -123.002056, 44.045642, 0.0 ] } },
{ "type": "Feature", "properties": { "district": "miscellaneous", "level": "adult", "school": "Pacific University Eugene Campus", "approximate_enrollment": 100, "log_enrollment": 0.0 }, "geometry": { "type": "Point", "coordinates": [ -123.034564, 44.011898, 0.0 ] } },
{ "type": "Feature", "properties": { "district": "private", "level": "6-12", "school": "Looking Glass Center Point School", "approximate_enrollment": 100, "log_enrollment": 0.0 }, "geometry": { "type": "Point", "coordinates": [ -123.119815, 44.047504 ] } },
{ "type": "Feature", "properties": { "district": "private", "level": "8-12", "school": "Twin Rivers Charter School", "approximate_enrollment": 100, "log_enrollment": 0.0 }, "geometry": { "type": "Point", "coordinates": [ -123.049811, 44.03195 ] } },
{ "type": "Feature", "properties": { "district": "private", "level": "8-12", "school": "Wellsprings Friends School", "approximate_enrollment": 100, "log_enrollment": 0.0 }, "geometry": { "type": "Point", "coordinates": [ -123.145936, 44.040225 ] } },
{ "type": "Feature", "properties": { "district": "private", "level": "elementary", "school": "Nature Discovery Christian School", "approximate_enrollment": 100, "log_enrollment": 0.0 }, "geometry": { "type": "Point", "coordinates": [ -123.145534, 44.132936 ] } },
{ "type": "Feature", "properties": { "district": "private", "level": "high", "school": "Looking Glass Riverfront School and Career Center", "approximate_enrollment": 100, "log_enrollment": 0.0 }, "geometry": { "type": "Point", "coordinates": [ -123.117105, 44.04634 ] } },
{ "type": "Feature", "properties": { "district": "private", "level": "high", "school": "Northwest Christian Academy", "approximate_enrollment": 100, "log_enrollment": 0.0 }, "geometry": { "type": "Point", "coordinates": [ -123.148998, 44.072162 ] } },
{ "type": "Feature", "properties": { "district": "private", "level": "high", "school": "Marist Catholic High School", "approximate_enrollment": 100, "log_enrollment": 0.0 }, "geometry": { "type": "Point", "coordinates": [ -123.115873, 44.086593 ] } },
{ "type": "Feature", "properties": { "district": "private", "level": "high", "school": "Eugene Christian School", "approximate_enrollment": 100, "log_enrollment": 0.0 }, "geometry": { "type": "Point", "coordinates": [ -123.061396, 44.090572 ] } },
{ "type": "Feature", "properties": { "district": "private", "level": "k-5", "school": "South Hills Montessori", "approximate_enrollment": 100, "log_enrollment": 0.0 }, "geometry": { "type": "Point", "coordinates": [ -123.081792, 44.031941 ] } },
{ "type": "Feature", "properties": { "district": "private", "level": "k-5", "school": "Eugene Waldorf School", "approximate_enrollment": 100, "log_enrollment": 0.0 }, "geometry": { "type": "Point", "coordinates": [ -123.113859, 44.024643 ] } },
{ "type": "Feature", "properties": { "district": "private", "level": "k-8", "school": "Lane School", "approximate_enrollment": 100, "log_enrollment": 0.0 }, "geometry": { "type": "Point", "coordinates": [ -123.127125, 44.041936 ] } },
{ "type": "Feature", "properties": { "district": "private", "level": "k-8", "school": "O'Hara Catholic School", "approximate_enrollment": 100, "log_enrollment": 0.0 }, "geometry": { "type": "Point", "coordinates": [ -123.103235, 44.041155 ] } },
{ "type": "Feature", "properties": { "district": "private", "level": "k-8", "school": "The Village School", "approximate_enrollment": 100, "log_enrollment": 0.0 }, "geometry": { "type": "Point", "coordinates": [ -123.091946, 44.019019 ] } },
{ "type": "Feature", "properties": { "district": "private", "level": "k-8", "school": "Saint Paul Catholic School", "approximate_enrollment": 100, "log_enrollment": 0.0 }, "geometry": { "type": "Point", "coordinates": [ -123.058355, 44.076212 ] } }
]
}
